NORAD_CAT_ID,OBJECT_NAME,OBJECT_TYPE,EPOCH,MEAN_MOTION,ECCENTRICITY,INCLINATION,RA_OF_ASC_NODE,ARG_OF_PERICENTER,MEAN_ANOMALY,BSTAR,MEAN_MOTION_DOT,MEAN_MOTION_DDOT,TLE_LINE0,TLE_LINE1,TLE_LINE2,SEMIMAJOR_AXIS,PERIOD,APOGEE,PERIGEE,DECAYED
53256.0,STARLINK-4147,PAYLOAD,2024-05-09 17:40:26,15.08839388,0.000116,53.217,317.1721,87.3399,272.7726,-0.00016544,-2.92e-05,0.0,0 STARLINK-4147,1 53256U 22086Q   24130.73642230 -.00002920  00000-0 -16544-3 0  9994,2 53256  53.2170 317.1721 0001160  87.3399 272.7726 15.08839388 99891,6917.882,95.438,540.55,538.945,0.0
53256.0,STARLINK-4147,PAYLOAD,2024-05-09 22:26:35,15.08851295,0.0001034,53.2171,316.2774,99.5392,260.5717,-0.00020854,-3.606e-05,0.0,0 STARLINK-4147,1 53256U 22086Q   24130.93513467 -.00003606  00000-0 -20854-3 0  9996,2 53256  53.2171 316.2774 0001034  99.5392 260.5717 15.08851295100101,6917.846,95.437,540.426,538.996,0.0
53256.0,STARLINK-4147,PAYLOAD,2024-05-10 12:45:05,15.08830573,0.0001357,53.2179,313.6022,90.5713,269.5434,3.4091e-06,-2.34e-06,0.0,0 STARLINK-4147,1 53256U 22086Q   24131.53130902 -.00000234  00000-0  34091-5 0  9995,2 53256  53.2179 313.6022 0001357  90.5713 269.5434 15.08830573100013,6917.909,95.438,540.713,538.835,0.0
53256.0,STARLINK-4147,PAYLOAD,2024-05-10 19:06:37,15.08838653,0.0001254,53.2174,312.4156,89.277,270.8366,9.3762e-05,1.205e-05,0.0,0 STARLINK-4147,1 53256U 22086Q   24131.79626240  .00001205  00000-0  93762-4 0  9995,2 53256  53.2174 312.4156 0001254  89.2770 270.8366 15.08838653100057,6917.885,95.438,540.617,538.882,0.0
53256.0,STARLINK-4147,PAYLOAD,2024-05-11 18:57:21,15.08850636,0.0001723,53.2178,307.9516,93.7512,266.3677,4.8269e-05,4.8e-06,0.0,0 STARLINK-4147,1 53256U 22086Q   24132.78983637  .00000480  00000-0  48269-4 0  9997,2 53256  53.2178 307.9516 0001723  93.7512 266.3677 15.08850636100202,6917.848,95.437,540.905,538.521,0.0
53256.0,STARLINK-4147,PAYLOAD,2024-05-12 04:29:46,15.08744587,0.0002679,53.218,306.168,93.331,266.7989,-0.0013543,-0.00021723,0.0,0 STARLINK-4147,1 53256U 22086Q   24133.18734799 -.00021723  00000-0 -13543-2 0  9995,2 53256  53.2180 306.1680 0002679  93.3310 266.7989 15.08744587100264,6918.172,95.444,541.89,538.184,0.0
53256.0,STARLINK-4147,PAYLOAD,2024-05-12 20:23:45,15.08678942,0.000135,53.2171,303.1937,99.4436,260.6709,-0.0018585,-0.00029615,0.0,0 STARLINK-4147,1 53256U 22086Q   24133.84982992 -.00029615  00000-0 -18585-2 0  9997,2 53256  53.2171 303.1937 0001350  99.4436 260.6709 15.08678942100362,6918.373,95.448,541.172,539.304,0.0
53256.0,STARLINK-4147,PAYLOAD,2024-05-13 04:20:37,15.08791779,9.06e-05,53.2175,301.7057,79.2995,280.8099,0.0003796,5.751e-05,0.0,0 STARLINK-4147,1 53256U 22086Q   24134.18098750  .00005751  00000-0  37960-3 0  9997,2 53256  53.2175 301.7057 0000906  79.2995 280.8099 15.08791779100411,6918.028,95.441,540.52,539.266,0.0
53256.0,STARLINK-4147,PAYLOAD,2024-05-13 10:42:10,15.08786559,5.58e-05,53.217,300.5158,131.4567,228.6473,0.0010173,0.00015916,0.0,0 STARLINK-4147,1 53256U 22086Q   24134.44595940  .00015916  00000-0  10173-2 0  9999,2 53256  53.2170 300.5158 0000558 131.4567 228.6473 15.08786559100634,6918.044,95.441,540.295,539.523,0.0
53256.0,STARLINK-4147,PAYLOAD,2024-05-13 17:03:43,15.08821309,0.0001721,53.2161,299.3303,93.5687,266.5502,0.0016898,0.00026694,0.0,0 STARLINK-4147,1 53256U 22086Q   24134.71091947  .00026694  00000-0  16898-2 0  9992,2 53256  53.2161 299.3303 0001721  93.5687 266.5502 15.08821309100496,6917.938,95.439,540.993,538.612,0.0
53256.0,STARLINK-4147,PAYLOAD,2024-05-14 04:11:25,15.08842488,0.000178,53.2164,297.2495,86.5042,273.6154,0.0018002,0.0002848,0.0,0 STARLINK-4147,1 53256U 22086Q   24135.17460058  .00028480  00000-0  18002-2 0  9990,2 53256  53.2164 297.2495 0001780  86.5042 273.6154 15.08842488100741,6917.873,95.437,540.969,538.506,0.0
53256.0,STARLINK-4147,PAYLOAD,2024-05-14 16:54:29,15.08861279,0.0001268,53.2166,294.8691,89.3915,270.7222,0.0020814,0.00033012,0.0,0 STARLINK-4147,1 53256U 22086Q   24135.70450474  .00033012  00000-0  20814-2 0  9991,2 53256  53.2166 294.8691 0001268  89.3915 270.7222 15.08861279100827,6917.815,95.436,540.558,538.803,0.0
53256.0,STARLINK-4147,PAYLOAD,2024-05-15 13:34:25,15.08902074,0.0001363,53.2139,291.0019,64.6154,295.4979,0.00016346,2.319e-05,0.0,0 STARLINK-4147,1 53256U 22086Q   24136.56557460  .00002319  00000-0  16346-3 0  9991,2 53256  53.2139 291.0019 0001363  64.6154 295.4979 15.08902074100953,6917.691,95.434,540.499,538.613,0.0
53256.0,STARLINK-4147,PAYLOAD,2024-05-15 16:45:11,15.08906632,0.0001402,53.2163,290.405,82.8041,277.3111,0.00014948,2.096e-05,0.0,0 STARLINK-4147,1 53256U 22086Q   24136.69804536  .00002096  00000-0  14948-3 0  9992,2 53256  53.2163 290.4050 0001402  82.8041 277.3111 15.08906632100792,6917.677,95.433,540.512,538.572,0.0
53256.0,STARLINK-4147,PAYLOAD,2024-05-16 10:14:24,15.08879503,0.0001124,53.2166,287.1335,103.2705,256.8412,-0.00027188,-4.617e-05,0.0,0 STARLINK-4147,1 53256U 22086Q   24137.42667137 -.00004617  00000-0 -27188-3 0  9991,2 53256  53.2166 287.1335 0001124 103.2705 256.8412 15.08879503100905,6917.76,95.435,540.402,538.847,0.0
53256.0,STARLINK-4147,PAYLOAD,2024-05-16 16:35:56,15.08881249,0.0001148,53.2165,285.9456,89.4232,270.6892,-0.00011728,-2.156e-05,0.0,0 STARLINK-4147,1 53256U 22086Q   24137.69162522 -.00002156  00000-0 -11728-3 0  9997,2 53256  53.2165 285.9456 0001148  89.4232 270.6892 15.08881249101121,6917.754,95.435,540.413,538.825,0.0
53256.0,STARLINK-4147,PAYLOAD,2024-05-17 10:05:11,15.08852142,9.12e-05,53.2157,282.6759,73.209,286.9002,-0.00032689,-5.488e-05,0.0,0 STARLINK-4147,1 53256U 22086Q   24138.42026756 -.00005488  00000-0 -32689-3 0  9997,2 53256  53.2157 282.6759 0000912  73.2090 286.9002 15.08852142101058,6917.843,95.437,540.339,539.077,0.0
53256.0,STARLINK-4147,PAYLOAD,2024-05-17 18:02:06,15.08850063,0.0001624,53.2151,281.1888,86.258,273.8598,-0.00020298,-3.518e-05,0.0,0 STARLINK-4147,1 53256U 22086Q   24138.75146688 -.00003518  00000-0 -20298-3 0  9995,2 53256  53.2151 281.1888 0001624  86.2580 273.8598 15.08850063101288,6917.85,95.437,540.838,538.591,0.0
53256.0,STARLINK-4147,PAYLOAD,2024-05-18 13:06:44,15.08850999,0.000141,53.2147,277.619,103.7703,256.3446,0.00014878,2.081e-05,0.0,0 STARLINK-4147,1 53256U 22086Q   24139.54634660  .00002081  00000-0  14878-3 0  9994,2 53256  53.2147 277.6190 0001410 103.7703 256.3446 15.08850999101224,6917.847,95.437,540.687,538.736,0.0
53256.0,STARLINK-4147,PAYLOAD,2024-05-18 14:42:07,15.08850269,0.0001029,53.215,277.3221,78.5082,281.6025,0.00015029,2.106e-05,0.0,0 STARLINK-4147,1 53256U 22086Q   24139.61258737  .00002106  00000-0  15029-3 0  9996,2 53256  53.2150 277.3221 0001029  78.5082 281.6025 15.08850269101410,6917.849,95.437,540.426,539.002,0.0
53256.0,STARLINK-4147,PAYLOAD,2024-05-18 19:28:16,15.08861861,0.0001264,53.2156,276.4298,61.9441,298.1679,0.00040714,6.201e-05,0.0,0 STARLINK-4147,1 53256U 22086Q   24139.81130237  .00006201  00000-0  40714-3 0  9991,2 53256  53.2156 276.4298 0001264  61.9441 298.1679 15.08861861101447,6917.814,95.436,540.553,538.804,0.0
53256.0,STARLINK-4147,PAYLOAD,2024-05-19 01:49:51,15.08820104,0.0002752,53.2142,275.2405,84.2903,275.8402,-0.00023139,-3.967e-05,0.0,0 STARLINK-4147,1 53256U 22086Q   24140.07628553 -.00003967  00000-0 -23139-3 0  9994,2 53256  53.2142 275.2405 0002752  84.2903 275.8402 15.08820104101309,6917.941,95.439,541.71,537.902,0.0
53256.0,STARLINK-4147,PAYLOAD,2024-05-19 12:57:33,15.08816999,0.000181,53.2144,273.1612,91.1356,268.9844,-0.00023234,-3.982e-05,0.0,0 STARLINK-4147,1 53256U 22086Q   24140.53996914 -.00003982  00000-0 -23234-3 0  9997,2 53256  53.2144 273.1612 0001810  91.1356 268.9844 15.08816999101558,6917.951,95.439,541.068,538.564,0.0
53256.0,STARLINK-4147,PAYLOAD,2024-05-19 19:19:05,15.08832742,0.0001472,53.2146,271.9693,98.857,261.2589,9.3757e-05,1.204e-05,0.0,0 STARLINK-4147,1 53256U 22086Q   24140.80492480  .00001204  00000-0  93757-4 0  9997,2 53256  53.2146 271.9693 0001472  98.8570 261.2589 15.08832742101412,6917.903,95.438,540.786,538.749,0.0
53256.0,STARLINK-4147,PAYLOAD,2024-05-20 14:23:42,15.08848004,0.0001912,53.2146,268.4057,76.3132,283.8073,0.00033421,5.036e-05,0.0,0 STARLINK-4147,1 53256U 22086Q   24141.59980257  .00005036  00000-0  33421-3 0  9996,2 53256  53.2146 268.4057 0001912  76.3132 283.8073 15.08848004101710,6917.856,95.437,541.044,538.398,0.0
53256.0,STARLINK-4147,PAYLOAD,2024-05-20 17:34:28,15.08867974,0.000145,53.2147,267.806,104.2447,255.8706,0.00070183,0.00010908,0.0,0 STARLINK-4147,1 53256U 22086Q   24141.73227259  .00010908  00000-0  70183-3 0  9998,2 53256  53.2147 267.8060 0001450 104.2447 255.8706 15.08867974101556,6917.795,95.436,540.663,538.657,0.0
53256.0,STARLINK-4147,PAYLOAD,2024-05-21 12:39:07,15.08838191,0.000168,53.2147,264.2405,76.2999,283.818,0.00013322,1.833e-05,0.0,0 STARLINK-4147,1 53256U 22086Q   24142.52716497  .00001833  00000-0  13322-3 0  9992,2 53256  53.2147 264.2405 0001680  76.2999 283.8180 15.08838191101674,6917.886,95.438,540.913,538.589,0.0
53256.0,STARLINK-4147,PAYLOAD,2024-05-21 14:14:29,15.08844374,0.0001524,53.2153,263.9398,104.6034,255.5127,0.00011213,1.497e-05,0.0,0 STARLINK-4147,1 53256U 22086Q   24142.59340072  .00001497  00000-0  11213-3 0  9994,2 53256  53.2153 263.9398 0001524 104.6034 255.5127 15.08844374101869,6917.867,95.437,540.786,538.678,0.0
53256.0,STARLINK-4147,PAYLOAD,2024-05-21 15:49:52,15.08852648,0.0001246,53.2152,263.6422,100.0,260.1132,0.00029266,4.374e-05,0.0,0 STARLINK-4147,1 53256U 22086Q   24142.65963771  .00004374  00000-0  29266-3 0  9992,2 53256  53.2152 263.6422 0001246 100.0000 260.1132 15.08852648101699,6917.842,95.437,540.569,538.845,0.0
53256.0,STARLINK-4147,PAYLOAD,2024-05-22 12:29:53,15.0884786,0.0001497,53.2154,259.7784,86.1424,273.9739,5.7246e-05,6.23e-06,0.0,0 STARLINK-4147,1 53256U 22086Q   24143.52075744  .00000623  00000-0  57246-4 0  9996,2 53256  53.2154 259.7784 0001497  86.1424 273.9739 15.08847860101820,6917.856,95.437,540.757,538.686,0.0
